NORAD_CAT_ID,OBJECT_NAME,OBJECT_TYPE,EPOCH,MEAN_MOTION,ECCENTRICITY,INCLINATION,RA_OF_ASC_NODE,ARG_OF_PERICENTER,MEAN_ANOMALY,BSTAR,MEAN_MOTION_DOT,MEAN_MOTION_DDOT,TLE_LINE0,TLE_LINE1,TLE_LINE2,SEMIMAJOR_AXIS,PERIOD,APOGEE,PERIGEE,DECAYED
52702.0,STARLINK-4033,PAYLOAD,2022-12-03 17:20:49,15.08828059,0.0001999,53.2189,100.0746,48.4909,311.6255,2.4871e-05,1.08e-06,0.0,0 STARLINK-4033,1 52702U 22053AY  22337.72279305  .00000108  00000-0  24871-4 0  9995,2 52702  53.2189 100.0746 0001999  48.4909 311.6255 15.08828059 30738,6917.917,95.438,541.165,538.399,0.0
52702.0,STARLINK-4033,PAYLOAD,2022-12-04 01:17:44,15.08834935,0.0002087,53.2191,98.5875,45.2669,314.8493,5.0226e-05,5.11e-06,0.0,0 STARLINK-4033,1 52702U 22053AY  22338.05398967  .00000511  00000-0  50226-4 0  9999,2 52702  53.2191  98.5875 0002087  45.2669 314.8493 15.08834935 30786,6917.896,95.438,541.205,538.317,0.0
52702.0,STARLINK-4033,PAYLOAD,2022-12-04 09:14:39,15.08848797,0.0001972,53.2188,97.1004,41.728,318.3862,-5.738100000000001e-05,-1.202e-05,0.0,0 STARLINK-4033,1 52702U 22053AY  22338.38518276 -.00001202  00000-0 -57381-4 0  9991,2 52702  53.2188  97.1004 0001972  41.7280 318.3862 15.08848797 30839,6917.854,95.437,541.0830000000002,538.354,0.0
52702.0,STARLINK-4033,PAYLOAD,2022-12-04 15:36:12,15.08843803,0.0002003,53.2188,95.9108,42.7859,317.3289,0.00017774,2.542e-05,0.0,0 STARLINK-4033,1 52702U 22053AY  22338.65014232  .00002542  00000-0  17774-3 0  9991,2 52702  53.2188  95.9108 0002003  42.7859 317.3289 15.08843803 31284,6917.869000000002,95.437,541.119,538.3480000000002,0.0
52702.0,STARLINK-4033,PAYLOAD,2022-12-05 01:08:31,15.08837931,0.0002052,53.2192,94.1271,44.607,315.5087,6.3607e-05,7.24e-06,0.0,0 STARLINK-4033,1 52702U 22053AY  22339.04759001  .00000724  00000-0  63607-4 0  9992,2 52702  53.2192  94.1271 0002052  44.6070 315.5087 15.08837931 30933,6917.887,95.438,541.1709999999998,538.332,0.0
52702.0,STARLINK-4033,PAYLOAD,2022-12-05 13:51:36,15.08845597,0.0002166,53.2198,91.7496,43.5264,316.5899,0.00019771,2.860000000000001e-05,0.0,0 STARLINK-4033,1 52702U 22053AY  22339.57750161  .00002860  00000-0  19771-3 0  9993,2 52702  53.2198  91.7496 0002166  43.5264 316.5899 15.08845597 31019,6917.863,95.437,541.227,538.23,0.0
52702.0,STARLINK-4033,PAYLOAD,2022-12-06 13:42:23,15.08845849,0.000236,53.2187,87.2876,48.8343,311.2853,5.4744e-05,5.83e-06,0.0,0 STARLINK-4033,1 52702U 22053AY  22340.57110034  .00000583  00000-0  54744-4 0  9994,2 52702  53.2187  87.2876 0002360  48.8343 311.2853 15.08845849 31574,6917.863,95.437,541.36,538.095,0.0
52702.0,STARLINK-4033,PAYLOAD,2022-12-06 15:17:46,15.08841795,0.0001911,53.2189,86.9906,38.3715,321.7413,-3.2407e-05,-8.04e-06,0.0,0 STARLINK-4033,1 52702U 22053AY  22340.63734166 -.00000804  00000-0 -32407-4 0  9999,2 52702  53.2189  86.9906 0001911  38.3715 321.7413 15.08841795 31174,6917.875,95.437,541.062,538.418,0.0
52702.0,STARLINK-4033,PAYLOAD,2022-12-07 16:43:57,15.08835218,0.0001866,53.218,82.23200000000001,39.4088,320.704,-0.00012214,-2.231e-05,0.0,0 STARLINK-4033,1 52702U 22053AY  22341.69718822 -.00002231  00000-0 -12214-3 0  9996,2 52702  53.2180  82.2320 0001866  39.4088 320.7040 15.08835218 31334,6917.895,95.438,541.0509999999998,538.469,0.0
52702.0,STARLINK-4033,PAYLOAD,2022-12-07 18:19:20,15.08840842,0.0002063,53.2188,81.9357,36.6657,323.4476,-4.1798e-05,-9.53e-06,0.0,0 STARLINK-4033,1 52702U 22053AY  22341.76342655 -.00000953  00000-0 -41798-4 0  9990,2 52702  53.2188  81.9357 0002063  36.6657 323.4476 15.08840842 31757,6917.878000000002,95.438,541.17,538.316,0.0
52702.0,STARLINK-4033,PAYLOAD,2022-12-08 13:23:58,15.08835741,0.0001962,53.22,78.368,27.7109,332.3988,0.00016066,2.269e-05,0.0,0 STARLINK-4033,1 52702U 22053AY  22342.55831061  .00002269  00000-0  16066-3 0  9991,2 52702  53.2200  78.3680 0001962  27.7109 332.3988 15.08835741 31873,6917.893,95.438,541.116,538.401,0.0
52702.0,STARLINK-4033,PAYLOAD,2022-12-08 16:34:44,15.08824929,0.0002212,53.2192,77.7746,37.1451,322.9694,-3.7356e-05,-8.83e-06,0.0,0 STARLINK-4033,1 52702U 22053AY  22342.69079723 -.00000883  00000-0 -37356-4 0  9993,2 52702  53.2192  77.7746 0002212  37.1451 322.9694 15.08824929 31890,6917.926,95.439,541.322,538.261,0.0
52702.0,STARLINK-4033,PAYLOAD,2022-12-08 22:56:14,15.0890265,0.0001654,53.2189,76.5868,25.739,334.3684,0.0012350999999999,0.00019457,0.0,0 STARLINK-4033,1 52702U 22053AY  22342.95572102  .00019457  00000-0  12351-2 0  9992,2 52702  53.2189  76.5868 0001654  25.7390 334.3684 15.08902650 31526,6917.689,95.434,540.698,538.41,0.0
52702.0,STARLINK-4033,PAYLOAD,2022-12-09 08:28:36,15.08828297,0.0002143,53.2192,74.801,39.8411,320.2738,0.00014752,2.060000000000001e-05,0.0,0 STARLINK-4033,1 52702U 22053AY  22343.35320089  .00002060  00000-0  14752-3 0  9992,2 52702  53.2192  74.8010 0002143  39.8411 320.2738 15.08828297 31993,6917.916,95.438,541.264,538.299,0.0
52702.0,STARLINK-4033,PAYLOAD,2022-12-09 14:50:09,15.08818831,0.0002306,53.2192,73.6121,38.2284,321.8871,-0.00013379,-2.416e-05,0.0,0 STARLINK-4033,1 52702U 22053AY  22343.61816658 -.00002416  00000-0 -13379-3 0  9994,2 52702  53.2192  73.6121 0002306  38.2284 321.8871 15.08818831 31623,6917.945,95.439,541.405,538.215,0.0
52702.0,STARLINK-4033,PAYLOAD,2022-12-10 09:54:47,15.08824359,0.0001997,53.2201,70.0442,56.5947,303.5236,-3.1798e-05,-7.94e-06,0.0,0 STARLINK-4033,1 52702U 22053AY  22344.41305340 -.00000794  00000-0 -31798-4 0  9997,2 52702  53.2201  70.0442 0001997  56.5947 303.5236 15.08824359 31742,6917.928000000001,95.439,541.175,538.4119999999998,0.0
52702.0,STARLINK-4033,PAYLOAD,2022-12-10 11:30:10,15.08829997,0.0002251,53.2198,69.7464,43.3856,316.7313,8.067899999999999e-05,9.96e-06,0.0,0 STARLINK-4033,1 52702U 22053AY  22344.47929216  .00000996  00000-0  80679-4 0  9991,2 52702  53.2198  69.7464 0002251  43.3856 316.7313 15.08829997 32165,6917.911,95.438,541.3330000000002,538.219,0.0
52702.0,STARLINK-4033,PAYLOAD,2022-12-10 16:16:19,15.08838253,0.0002229,53.2198,68.8524,34.9874,325.1264,0.00010241,1.342e-05,0.0,0 STARLINK-4033,1 52702U 22053AY  22344.67800852  .00001342  00000-0  10241-3 0  9990,2 52702  53.2198  68.8524 0002229  34.9874 325.1264 15.08838253 31784,6917.886,95.438,541.293,538.2090000000002,0.0
52702.0,STARLINK-4033,PAYLOAD,2022-12-11 12:56:20,15.08844436,0.0002324,53.2183,64.9877,37.3352,322.7802,0.00035048,5.295e-05,0.0,0 STARLINK-4033,1 52702U 22053AY  22345.53912743  .00005295  00000-0  35048-3 0  9992,2 52702  53.2183  64.9877 0002324  37.3352 322.7802 15.08844436 32322,6917.8669999999975,95.437,541.34,538.124,0.0
52702.0,STARLINK-4033,PAYLOAD,2022-12-11 14:31:43,15.08847653,0.0002276,53.2185,64.6896,32.3264,327.7868,0.00034198,5.16e-05,0.0,0 STARLINK-4033,1 52702U 22053AY  22345.60536535  .00005160  00000-0  34198-3 0  9997,2 52702  53.2185  64.6896 0002276  32.3264 327.7868 15.08847653 32337,6917.857,95.437,541.297,538.1469999999998,0.0
52702.0,STARLINK-4033,PAYLOAD,2022-12-12 09:36:21,15.08844964,0.0002359,53.2182,61.1212,35.7026,324.4124,0.00016697,2.37e-05,0.0,0 STARLINK-4033,1 52702U 22053AY  22346.40024342  .00002370  00000-0  16697-3 0  9998,2 52702  53.2182  61.1212 0002359  35.7026 324.4124 15.08844964 32042,6917.865,95.437,541.362,538.0980000000002,0.0
52702.0,STARLINK-4033,PAYLOAD,2022-12-12 11:11:44,15.08846287,0.0002255,53.2187,60.8236,38.2802,321.835,3.9631e-05,3.43e-06,0.0,0 STARLINK-4033,1 52702U 22053AY  22346.46648213  .00000343  00000-0  39631-4 0  9995,2 52702  53.2187  60.8236 0002255  38.2802 321.8350 15.08846287 32462,6917.861,95.437,541.286,538.1659999999998,0.0
52702.0,STARLINK-4033,PAYLOAD,2022-12-12 17:33:16,15.08851714,0.0001856,53.2192,59.6341,54.1767,305.9397,4.4805e-05,4.25e-06,0.0,0 STARLINK-4033,1 52702U 22053AY  22346.73143906  .00000425  00000-0  44805-4 0  9994,2 52702  53.2192  59.6341 0001856  54.1767 305.9397 15.08851714 32504,6917.845,95.437,540.994,538.4259999999998,0.0
52702.0,STARLINK-4033,PAYLOAD,2022-12-13 11:02:31,15.08842983,0.0002252,53.2191,56.3633,36.7718,323.3428,-2.3111e-05,-6.56e-06,0.0,0 STARLINK-4033,1 52702U 22053AY  22347.46008220 -.00000656  00000-0 -23111-4 0  9999,2 52702  53.2191  56.3633 0002252  36.7718 323.3428 15.08842983 32613,6917.871,95.437,541.294,538.178,0.0
52702.0,STARLINK-4033,PAYLOAD,2022-12-13 14:13:17,15.088421,0.0002236,53.2191,55.7688,36.8445,323.27,-1.9057e-05,-5.92e-06,0.0,0 STARLINK-4033,1 52702U 22053AY  22347.59256214 -.00000592  00000-0 -19057-4 0  9994,2 52702  53.2191  55.7688 0002236  36.8445 323.2700 15.08842100 32226,6917.874,95.437,541.286,538.192,0.0
52702.0,STARLINK-4033,PAYLOAD,2022-12-14 10:53:17,15.08849706,0.0002285,53.2195,51.9038,26.5796,333.5313,6.727899999999999e-05,7.83e-06,0.0,0 STARLINK-4033,1 52702U 22053AY  22348.45367034  .00000783  00000-0  67279-4 0  9992,2 52702  53.2195  51.9038 0002285  26.5796 333.5313 15.08849706 32768,6917.851,95.437,541.2959999999998,538.135,0.0
52702.0,STARLINK-4033,PAYLOAD,2022-12-14 15:39:26,15.08847558,0.0002301,53.2192,51.0116,31.2281,328.8848,0.00010013,1.306e-05,0.0,0 STARLINK-4033,1 52702U 22053AY  22348.65239003  .00001306  00000-0  10013-3 0  9993,2 52702  53.2192  51.0116 0002301  31.2281 328.8848 15.08847558 32385,6917.857,95.437,541.314,538.13,0.0
52702.0,STARLINK-4033,PAYLOAD,2022-12-15 04:22:31,15.08845988,0.0002465,53.2187,48.63399999999999,31.3323,328.7815,-0.00010696,-1.991e-05,0.0,0 STARLINK-4033,1 52702U 22053AY  22349.18231478 -.00001991  00000-0 -10696-3 0  9999,2 52702  53.2187  48.6340 0002465  31.3323 328.7815 15.08845988 32466,6917.861999999999,95.437,541.432,538.0219999999998,0.0
52702.0,STARLINK-4033,PAYLOAD,2022-12-15 10:44:02,15.08911644,0.0002019,53.2188,47.444,29.2232,330.8873,-0.00095647,-0.00015508,0.0,0 STARLINK-4033,1 52702U 22053AY  22349.44725451 -.00015508  00000-0 -95647-3 0  9995,2 52702  53.2188  47.4440 0002019  29.2232 330.8873 15.08911644 32501,6917.661,95.433,540.923,538.13,0.0
